{
  "type": "FeatureCollection",
  "features": [
    {
      "type": "Feature",
      "properties": {
        "norad_id": 22490,
        "name": "SCD 1",
        "group": "resource",
        "lat": 23.2882085520277,
        "lon": -62.782709800477335,
        "alt_km": 705.2048688039158,
        "timestamp": "2025-12-20T16:47:35.947718+00:00",
        "meta_object_name": "SCD 1",
        "meta_object_id": "1993-009B",
        "meta_epoch": "2025-12-20T02:06:40.199328",
        "meta_mean_motion": 14.46003712,
        "meta_eccentricity": 0.00420998,
        "meta_inclination": 24.9683,
        "meta_ra_of_asc_node": 233.3258,
        "meta_arg_of_pericenter": 42.7923,
        "meta_mean_anomaly": 75.5892,
        "meta_ephemeris_type": 0,
        "meta_classification_type": "U",
        "meta_norad_cat_id": 22490,
        "meta_element_set_no": 999,
        "meta_rev_at_epoch": 73516,
        "meta_bstar": 6.2477864e-05,
        "meta_mean_motion_dot": 4.13e-06,
        "meta_mean_motion_ddot": 0,
        "tle_line1": "1 22490U 93009B   25354.08796527  .00000413  00000+0  62478-4 0  9999",
        "tle_line2": "2 22490  24.9683 233.3258 0042099  42.7923  75.5892 14.46003712735164"
      },
      "geometry": {
        "type": "Point",
        "coordinates": [
          -62.782709800477335,
          23.2882085520277
        ]
      }
    },
    {
      "type": "Feature",
      "properties": {
        "norad_id": 25397,
        "name": "TECHSAT 1B (GO-32)",
        "group": "resource",
        "lat": -74.20004791313507,
        "lon": 12.124981334191979,
        "alt_km": 818.5418214275769,
        "timestamp": "2025-12-20T16:47:35.947745+00:00",
        "meta_object_name": "TECHSAT 1B (GO-32)",
        "meta_object_id": "1998-043D",
        "meta_epoch": "2025-12-20T10:24:38.007072",
        "meta_mean_motion": 14.24379087,
        "meta_eccentricity": 0.0001817,
        "meta_inclination": 98.9927,
        "meta_ra_of_asc_node": 337.8236,
        "meta_arg_of_pericenter": 45.1829,
        "meta_mean_anomaly": 314.9496,
        "meta_ephemeris_type": 0,
        "meta_classification_type": "U",
        "meta_norad_cat_id": 25397,
        "meta_element_set_no": 999,
        "meta_rev_at_epoch": 42588,
        "meta_bstar": 3.8955e-05,
        "meta_mean_motion_dot": 4.3e-07,
        "meta_mean_motion_ddot": 0,
        "tle_line1": "1 25397U 98043D   25354.43377323  .00000043  00000+0  38955-4 0  9991",
        "tle_line2": "2 25397  98.9927 337.8236 0001817  45.1829 314.9496 14.24379087425888"
      },
      "geometry": {
        "type": "Point",
        "coordinates": [
          12.124981334191979,
          -74.20004791313507
        ]
      }
    },
    {
      "type": "Feature",
      "properties": {
        "norad_id": 25504,
        "name": "SCD 2",
        "group": "resource",
        "lat": 24.878158027763195,
        "lon": 177.2882380517396,
        "alt_km": 726.7409800604337,
        "timestamp": "2025-12-20T16:47:35.947761+00:00",
        "meta_object_name": "SCD 2",
        "meta_object_id": "1998-060A",
        "meta_epoch": "2025-12-20T00:34:20.177760",
        "meta_mean_motion": 14.45427003,
        "meta_eccentricity": 0.00169593,
        "meta_inclination": 24.9945,
        "meta_ra_of_asc_node": 96.9807,
        "meta_arg_of_pericenter": 30.6376,
        "meta_mean_anomaly": 130.1203,
        "meta_ephemeris_type": 0,
        "meta_classification_type": "U",
        "meta_norad_cat_id": 25504,
        "meta_element_set_no": 999,
        "meta_rev_at_epoch": 43437,
        "meta_bstar": 4.6916456e-05,
        "meta_mean_motion_dot": 3.5e-06,
        "meta_mean_motion_ddot": 0,
        "tle_line1": "1 25504U 98060A   25354.02384465  .00000350  00000+0  46916-4 0  9997",
        "tle_line2": "2 25504  24.9945  96.9807 0016959  30.6376 130.1203 14.45427003434376"
      },
      "geometry": {
        "type": "Point",
        "coordinates": [
          177.2882380517396,
          24.878158027763195
        ]
      }
    },
    {
      "type": "Feature",
      "properties": {
        "norad_id": 25757,
        "name": "DLR-TUBSAT",
        "group": "resource",
        "lat": -41.55286618232828,
        "lon": 151.69848667811857,
        "alt_km": 718.5348456103611,
        "timestamp": "2025-12-20T16:47:35.947774+00:00",
        "meta_object_name": "DLR-TUBSAT",
        "meta_object_id": "1999-029B",
        "meta_epoch": "2025-12-17T13:22:10.787520",
        "meta_mean_motion": 14.52359578,
        "meta_eccentricity": 0.00141996,
        "meta_inclination": 98.6566,
        "meta_ra_of_asc_node": 336.2196,
        "meta_arg_of_pericenter": 177.8976,
        "meta_mean_anomaly": 182.2281,
        "meta_ephemeris_type": 0,
        "meta_classification_type": "U",
        "meta_norad_cat_id": 25757,
        "meta_element_set_no": 999,
        "meta_rev_at_epoch": 40688,
        "meta_bstar": 3.7650132e-05,
        "meta_mean_motion_dot": 1.05e-06,
        "meta_mean_motion_ddot": 0,
        "tle_line1": "1 25757U 99029B   25351.55706930  .00000105  00000+0  37650-4 0  9996",
        "tle_line2": "2 25757  98.6566 336.2196 0014199 177.8976 182.2281 14.52359578406886"
      },
      "geometry": {
        "type": "Point",
        "coordinates": [
          151.69848667811857,
          -41.55286618232828
        ]
      }
    },
    {
      "type": "Feature",
      "properties": {
        "norad_id": 25994,
        "name": "TERRA",
        "group": "resource",
        "lat": 10.49575640752498,
        "lon": -132.4203287918955,
        "alt_km": 691.7967696805281,
        "timestamp": "2025-12-20T16:47:35.947786+00:00",
        "meta_object_name": "TERRA",
        "meta_object_id": "1999-068A",
        "meta_epoch": "2025-12-20T11:36:29.454336",
        "meta_mean_motion": 14.60909855,
        "meta_eccentricity": 0.000354,
        "meta_inclination": 97.9737,
        "meta_ra_of_asc_node": 45.8836,
        "meta_arg_of_pericenter": 79.2014,
        "meta_mean_anomaly": 34.4687,
        "meta_ephemeris_type": 0,
        "meta_classification_type": "U",
        "meta_norad_cat_id": 25994,
        "meta_element_set_no": 999,
        "meta_rev_at_epoch": 38351,
        "meta_bstar": 7.6371e-05,
        "meta_mean_motion_dot": 3.29e-06,
        "meta_mean_motion_ddot": 0,
        "tle_line1": "1 25994U 99068A   25354.48367424  .00000329  00000+0  76371-4 0  9999",
        "tle_line2": "2 25994  97.9737  45.8836 0003540  79.2014  34.4687 14.60909855383511"
      },
      "geometry": {
        "type": "Point",
        "coordinates": [
          -132.4203287918955,
          10.49575640752498
        ]
      }
    },
    {
      "type": "Feature",
      "properties": {
        "norad_id": 27004,
        "name": "MAROC-TUBSAT",
        "group": "resource",
        "lat": 78.90325846310799,
        "lon": 101.58936622044668,
        "alt_km": 1004.0017824127999,
        "timestamp": "2025-12-20T16:47:35.947797+00:00",
        "meta_object_name": "MAROC-TUBSAT",
        "meta_object_id": "2001-056D",
        "meta_epoch": "2025-12-20T11:25:13.051200",
        "meta_mean_motion": 13.70253266,
        "meta_eccentricity": 0.0019179,
        "meta_inclination": 99.7915,
        "meta_ra_of_asc_node": 163.0563,
        "meta_arg_of_pericenter": 239.6047,
        "meta_mean_anomaly": 181.4763,
        "meta_ephemeris_type": 0,
        "meta_classification_type": "U",
        "meta_norad_cat_id": 27004,
        "meta_element_set_no": 999,
        "meta_rev_at_epoch": 20171,
        "meta_bstar": 1.6498e-05,
        "meta_mean_motion_dot": -3.2e-07,
        "meta_mean_motion_ddot": 0,
        "tle_line1": "1 27004U 01056D   25354.47584550 -.00000032  00000+0  16498-4 0  9999",
        "tle_line2": "2 27004  99.7915 163.0563 0019179 239.6047 181.4763 13.70253266201713"
      },
      "geometry": {
        "type": "Point",
        "coordinates": [
          101.58936622044668,
          78.90325846310799
        ]
      }
    },
    {
      "type": "Feature",
      "properties": {
        "norad_id": 27424,
        "name": "AQUA",
        "group": "resource",
        "lat": 68.97914681800452,
        "lon": -66.91888390699802,
        "alt_km": 679.8299133502924,
        "timestamp": "2025-12-20T16:47:35.947809+00:00",
        "meta_object_name": "AQUA",
        "meta_object_id": "2002-022A",
        "meta_epoch": "2025-12-19T19:17:33.406368",
        "meta_mean_motion": 14.61824191,
        "meta_eccentricity": 0.00013487,
        "meta_inclination": 98.4046,
        "meta_ra_of_asc_node": 314.798,
        "meta_arg_of_pericenter": 112.3467,
        "meta_mean_anomaly": 286.6091,
        "meta_ephemeris_type": 0,
        "meta_classification_type": "U",
        "meta_norad_cat_id": 27424,
        "meta_element_set_no": 999,
        "meta_rev_at_epoch": 25706,
        "meta_bstar": 0.00015509968,
        "meta_mean_motion_dot": 7.25e-06,
        "meta_mean_motion_ddot": 0,
        "tle_line1": "1 27424U 02022A   25353.80385887  .00000725  00000+0  15510-3 0  9998",
        "tle_line2": "2 27424  98.4046 314.7980 0001348 112.3467 286.6091 14.61824191257063"
      },
      "geometry": {
        "type": "Point",
        "coordinates": [
          -66.91888390699802,
          68.97914681800452
        ]
      }
    }
  ]
}